[
        {
                "id": "10",
                "name": "Astro Thai (S4) @ Cantine Northshore",
                "address": "418 NORTHSHORE DRIVE, #02-07-09",
                "postalCode": "820418"
        },
        {
                "id": "11",
                "name": "Bottle Tree Cafe Restaurant",
                "address": "510 UPPER JURONG ROAD, #01-06-08, SINGAPORE DISCOVERY CENTRE",
                "postalCode": "638365"
        },
        {
                "id": "12",
                "name": "Fitra Chicken Rice (S2) @ Cantine Northshore",
                "address": "418 NORTHSHORE DRIVE, #02-07-09",
                "postalCode": "820418"
        },
        {
                "id": "13",
                "name": "Grilled Delights/Paper Pot/Homemade Yogurts (S7)@My Kampung KWM",
                "address": "1 STADIUM PLACE, #02-16/k6",
                "postalCode": "397628"
        },
        {
                "id": "14",
                "name": "HYOGAKI",
                "address": "110 YISHUN RING ROAD, #01-395",
                "postalCode": "760110"
        },
        {
                "id": "15",
                "name": "Penang Culture",
                "address": "1 Pasir Ris Central Street 3, #03-21, White Sands",
                "postalCode": "518457"
        },
        {
                "id": "16",
                "name": "Sanook Kitchen",
                "address": "21 CHOA CHU KANG AVENUE 4, #01-06/07, LOT ONE, SHOPPERS' MALL",
                "postalCode": "689812"
        },
        {
                "id": "17",
                "name": "SUBWAY",
                "address": "2 COLLEGE AVENUE WEST, #01-08",
                "postalCode": "138607"
        },
        {
                "id": "18",
                "name": "SUBWAY",
                "address": "418 YISHUN AVENUE 11, #01-401",
                "postalCode": "760418"
        },
        {
                "id": "19",
                "name": "SUKARNIH CHICKEN RICE (S33)@ MARGARET DRIVE HAWKER CENTRE",
                "address": "38A MARGARET DRIVE, #01-33",
                "postalCode": "142038"
        },
        {
                "id": "20",
                "name": "Pastamania",
                "address": "1 STADIUM PLACE, #01-21, Kallang Wave Mall",
                "postalCode": "397628"
        },
        {
                "id": "21",
                "name": "PastaMania",
                "address": "408 ANG MO KIO AVENUE 10 01-783 - 560408",
                "postalCode": "560408"
        },
        {
                "id": "22",
                "name": "Pastamania Pronto / Kraftwich",
                "address": "80 Marine Parade Road, B1-83C Parkway Parade",
                "postalCode": "449269"
        },
        {
                "id": "23",
                "name": "Pastamania Pronto / Kraftwich",
                "address": "1 Fusionopolis Way, 01-04 Connexis",
                "postalCode": "138632"
        },
        {
                "id": "24",
                "name": "Pattaya Garden Restaurant & Catering",
                "address": "140 Changi Road",
                "postalCode": "419723"
        },
        {
                "id": "25",
                "name": "Pavilion Banana Leaf",
                "address": "23 SERANGOON CENTRAL, #02-17, NEX",
                "postalCode": "556083"
        },
        {
                "id": "26",
                "name": "Pavilion Banana Leaf",
                "address": "3 GATEWAY DRIVE, #02-28, WESTGATE",
                "postalCode": "608532"
        },
        {
                "id": "27",
                "name": "Penang Cuisine (S11) @ Kopitiam Vivo City",
                "address": "1 HARBOURFRONT WALK, B2-39, VIVO CITY",
                "postalCode": "098585"
        },
        {
                "id": "28",
                "name": "Penang Culture",
                "address": "1 Sengkang Square, #03-13, Compass One",
                "postalCode": "545078"
        },
        {
                "id": "29",
                "name": "Penang Culture",
                "address": "50 Jurong Gateway Road 04-27 JEM Shopping Mall 508346",
                "postalCode": "508346"
        },
        {
                "id": "30",
                "name": "Arnold's",
                "address": "215 Bedok North Street 1, 01-83",
                "postalCode": "460215"
        },
        {
                "id": "31",
                "name": "Aroy Viet Thai (S6) @ Food Paradise 120 Canberra",
                "address": "120 CANBERRA CRESCENT, #01-01",
                "postalCode": "750120"
        },
        {
                "id": "32",
                "name": "ARTBITES CAFE",
                "address": "5 WOODLANDS AVENUE 9, #01-01, REPUBLIC POLYTECHNIC",
                "postalCode": "738962"
        },
        {
                "id": "33",
                "name": "Asam Tree (S7) @ Broadway Coffeeshop",
                "address": "155 BUKIT BATOK STREET 11, 01-322",
                "postalCode": "650155"
        },
        {
                "id": "34",
                "name": "Asam Tree Nasi Padang (S2) @ De Tian Coffeeshop 126 Canberra",
                "address": "126 CANBERRA STREET, 01-01",
                "postalCode": "750126"
        },
        {
                "id": "35",
                "name": "Asam Tree Snack & Nasi Lemak",
                "address": "100 Hougang Avenue 10, #01-03, Kang Kar Mall",
                "postalCode": "538767"
        },
        {
                "id": "36",
                "name": "Asian Counter @ Carousel",
                "address": "25 Scotts Road, Scottswalk",
                "postalCode": "228220"
        },
        {
                "id": "37",
                "name": "Padi Emas BBQ (S4) @ Padi Emas",
                "address": "28 SENANG CRESCENT, BIZHUB28",
                "postalCode": "416601"
        },
        {
                "id": "38",
                "name": "Papa Cafe",
                "address": "991 BUANGKOK LINK, #02-10",
                "postalCode": "530991"
        },
        {
                "id": "39",
                "name": "PastaMania",
                "address": "4 TAMPINES CENTRAL 5 04-21/22 TAMPINES MALL 529510",
                "postalCode": "529510"
        },
        {
                "id": "40",
                "name": "Asam Tree (S7) @ Broadway Coffeeshop",
                "address": "155 BUKIT BATOK STREET 11, 01-322",
                "postalCode": "650155"
        },
        {
                "id": "41",
                "name": "Asam Tree Nasi Padang (S2) @ De Tian Coffeeshop 126 Canberra",
                "address": "126 CANBERRA STREET, 01-01",
                "postalCode": "750126"
        },
        {
                "id": "42",
                "name": "Asam Tree Snack & Nasi Lemak",
                "address": "100 Hougang Avenue 10, #01-03, Kang Kar Mall",
                "postalCode": "538767"
        },
        {
                "id": "43",
                "name": "Asian Counter @ Carousel",
                "address": "25 Scotts Road, Scottswalk",
                "postalCode": "228220"
        },
        {
                "id": "44",
                "name": "Asian Delights @ Bistro Box NUS",
                "address": "3A ENGINEERING DRIVE 2, #01, FACULTY OF ENGINEERING (LEVEL 1)",
                "postalCode": "117275"
        },
        {
                "id": "45",
                "name": "Old Chang Kee",
                "address": "450 Telok Blangah Street 31, 01-02, Telok Blangah Community Club",
                "postalCode": "108943"
        },
        {
                "id": "46",
                "name": "Old Chang Kee",
                "address": "3TEMASEK BOULEVARD01-301SUNTEC CITY MALL",
                "postalCode": "038983"
        },
        {
                "id": "47",
                "name": "Old Chang Kee",
                "address": "70 Jellicoe Road 01-06/07 V-Hotel Lavender 208767",
                "postalCode": "208767"
        },
        {
                "id": "48",
                "name": "Old Chang Kee",
                "address": "1 HARBOURFRONT WALK B2-K21 VIVO CITY 098585",
                "postalCode": "098585"
        },
        {
                "id": "49",
                "name": "Old Chang Kee",
                "address": "1 PASIR RIS CENTRAL STREET 3 01-42 WHITE SAND SHOPPING MALL 518457",
                "postalCode": "518457"
        },
        {
                "id": "50",
                "name": "ANDES",
                "address": "2 Jurong East Street 21, #01-19, IMM Building",
                "postalCode": "609601"
        },
        {
                "id": "51",
                "name": "ANDES",
                "address": "750 Chai Chee Road, 01-30, Technopark @ Chai Chee",
                "postalCode": "469000"
        },
        {
                "id": "52",
                "name": "Auntie Anne's",
                "address": "1 HARBOURFRONT WALK, #B2-K6, VIVO CITY",
                "postalCode": "098585"
        },
        {
                "id": "53",
                "name": "Aunty Rosie",
                "address": "110 Sengkang East Way, 02-09 Sengkang General Hospital",
                "postalCode": "544886"
        },
        {
                "id": "54",
                "name": "Old Chang Kee",
                "address": "930 YISHUN AVENUE 2 01-04 NORTHPOINT 769098",
                "postalCode": "769098"
        },
        {
                "id": "55",
                "name": "Old Chang Kee",
                "address": "157 UPPER EAST COAST ROAD - SPC SERVICE STATION 455253",
                "postalCode": "455253"
        },
        {
                "id": "56",
                "name": "Old Chang Kee",
                "address": "1 BUKIT BATOK CENTRAL LINK B1-05 WEST MALL 658713",
                "postalCode": "658713"
        },
        {
                "id": "57",
                "name": "Old Chang Kee",
                "address": "1 WOODLANDS SQUARE 01-K11 CAUSEWAY POINT 738099",
                "postalCode": "738099"
        },
        {
                "id": "58",
                "name": "Old Times",
                "address": "2 BUKIT PANJANG RING ROAD, #01-03",
                "postalCode": "679947"
        },
        {
                "id": "59",
                "name": "Old Town White Coffee",
                "address": "333 BOON LAY WAY 2C-01 Safra Jurong 649848",
                "postalCode": "649848"
        },
        {
                "id": "60",
                "name": "ANDES",
                "address": "1 Jelebu Road, #03-10, Bukit Panjang Plaza",
                "postalCode": "677743"
        },
        {
                "id": "61",
                "name": "ANDES",
                "address": "293 LORONG 6 TOA PAYOH, #01-05, SAFRA CLUBHOUSE (TOA PAYOH)",
                "postalCode": "319387"
        },
        {
                "id": "62",
                "name": "ANDES",
                "address": "6 WOODLANDS SQUARE, #01-13/16, WOODS SQUARE",
                "postalCode": "737737"
        },
        {
                "id": "63",
                "name": "Auntie Anne's",
                "address": "83 PUNGGOL CENTRAL, #B1-K13A, WATERWAY POINT",
                "postalCode": "828761"
        },
        {
                "id": "64",
                "name": "Auntie Anne's",
                "address": "930 YISHUN AVENUE 2, #B1-25",
                "postalCode": "769098"
        },
        {
                "id": "65",
                "name": "Ayam Penyet President Express",
                "address": "55 Armenian Street 03-02",
                "postalCode": "179943"
        },
        {
                "id": "66",
                "name": "Old Chang Kee",
                "address": "20 Woodlands Avenue 9, Shell",
                "postalCode": "738954"
        },
        {
                "id": "67",
                "name": "Old Chang Kee",
                "address": "90 HOUGANG AVENUE 10 01-39 NTUC HOUGANG MALL 538766",
                "postalCode": "538766"
        },
        {
                "id": "68",
                "name": "Old Town White Coffee",
                "address": "1187 Upper Serangoon Road 01-24 The MidTown 533971",
                "postalCode": "533971"
        },
        {
                "id": "69",
                "name": "Old Town White Coffee",
                "address": "902 EAST COAST PARKWAY, 01-03 AQUATIC COMPLEX (BIG SPLASH)",
                "postalCode": "449874"
        },
        {
                "id": "70",
                "name": "Ayam Penyet President",
                "address": "304 Orchard Road, 03-36/37, Lucky Plaza",
                "postalCode": "238863"
        },
        {
                "id": "71",
                "name": "Old Chang Kee",
                "address": "290 ORCHARD ROAD B1-10 PARAGON, THE 238859",
                "postalCode": "238859"
        },
        {
                "id": "72",
                "name": "Old Chang Kee",
                "address": "1 TAMPINES WALK B1-42 OUR TAMPINES HUB 528523",
                "postalCode": "528523"
        },
        {
                "id": "73",
                "name": "Old Chang Kee",
                "address": "10 Paya Lebar Road, B2-32",
                "postalCode": "409057"
        },
        {
                "id": "74",
                "name": "Old Chang Kee",
                "address": "30 RAFFLES PLACE, #B1-33, CHANGE ALLEY MALL",
                "postalCode": "048622"
        },
        {
                "id": "75",
                "name": "Old Chang Kee",
                "address": "68 ORCHARD ROAD B2-02 PLAZA SINGAPURA 238839",
                "postalCode": "238839"
        },
        {
                "id": "76",
                "name": "Old Chang Kee",
                "address": "55 UPPER SERANGOON ROAD 01-03/04 POTONG PASIR MRT STATION 347694",
                "postalCode": "347694"
        },
        {
                "id": "77",
                "name": "Old Chang Kee",
                "address": "83 Punggol Central 01-K2 Water Way Point (WEST WING) 828761",
                "postalCode": "828761"
        },
        {
                "id": "78",
                "name": "Old Chang Kee",
                "address": "252 North Bridge Road, B1-55, Raffles City Shopping Centre",
                "postalCode": "179103"
        },
        {
                "id": "81",
                "name": "Old Chang Kee",
                "address": "50 BEACH VIEW 01-K7 SENTOSA 098604",
                "postalCode": "098604"
        },
        {
                "id": "82",
                "name": "Old Chang Kee",
                "address": "30 SIMEI STREET 3 01-02 SIMEI MRT STATION 529888",
                "postalCode": "529888"
        },
        {
                "id": "83",
                "name": "Old Chang Kee",
                "address": "10 EUNOS ROAD 8 01-147 SINGAPORE POST CENTRE 408600",
                "postalCode": "408600"
        },
        {
                "id": "84",
                "name": "Old Chang Kee",
                "address": "9A SERANGOON NORTH AVENUE 5 - (SMART ENERGY) 554500",
                "postalCode": "554500"
        },
        {
                "id": "85",
                "name": "Old Chang Kee",
                "address": "100 PUNGGOL CENTRAL - SPC SERVICE STATION 828839",
                "postalCode": "828839"
        },
        {
                "id": "86",
                "name": "Old Chang Kee",
                "address": "30 SEMBAWANG DRIVE B1-44 SUN PLAZA 757713",
                "postalCode": "757713"
        },
        {
                "id": "87",
                "name": "Old Chang Kee",
                "address": "60 Paya Lebar Road 01-47 Paya Lebar Square 409051",
                "postalCode": "409051"
        },
        {
                "id": "88",
                "name": "Old Chang Kee",
                "address": "20 TAMPINES CENTRAL 1 01-03 TAMPINES MRT STATION 529538",
                "postalCode": "529538"
        },
        {
                "id": "89",
                "name": "OLD CHANG KEE TAKE5",
                "address": "63JURONG WEST CENTRAL 301-37/38JURONG POINT SHOPPING CENTRE",
                "postalCode": "648331"
        },
        {
                "id": "90",
                "name": "BBQ Wholesale Centre Pte Ltd",
                "address": "81 Frankel Avenue Frankel Estate",
                "postalCode": "458209"
        },
        {
                "id": "91",
                "name": "Old Chang Kee",
                "address": "68 ORCHARD ROAD B2-02 PLAZA SINGAPURA 238839",
                "postalCode": "238839"
        },
        {
                "id": "92",
                "name": "Pizza Hut Singapore Pte Ltd",
                "address": "1 SENGKANG SQUARE B1-15 COMPASS ONE 545078",
                "postalCode": "545078"
        },
        {
                "id": "93",
                "name": "Prata Wala",
                "address": "930 YISHUN AVENUE 2 B1-57 NORTHPOINT 769098",
                "postalCode": "769098"
        },
        {
                "id": "94",
                "name": "Primadeli",
                "address": "53 Ang Mo Kio Avenue 3, B2-56, AMK Hub",
                "postalCode": "569933"
        },
        {
                "id": "95",
                "name": "Primadeli",
                "address": "105 Canberra Street, 01-06",
                "postalCode": "750105"
        },
        {
                "id": "96",
                "name": "Primadeli",
                "address": "3155 Commonwealth Avenue West, B1-K19, The Clementi Mall",
                "postalCode": "129588"
        },
        {
                "id": "97",
                "name": "PrimaDeli",
                "address": "272 BUKIT BATOK EAST AVENUE 4 01-76 - 650272",
                "postalCode": "650272"
        },
        {
                "id": "98",
                "name": "PrimaDeli",
                "address": "1 WOODLANDS SQUARE B1-K23 CAUSEWAY POINT 738099",
                "postalCode": "738099"
        },
        {
                "id": "99",
                "name": "PrimaDeli",
                "address": "1 SENGKANG SQUARE B1-18 COMPASS POINT 545078",
                "postalCode": "545078"
        }
]